NORAD_CAT_ID,OBJECT_NAME,OBJECT_TYPE,EPOCH,MEAN_MOTION,ECCENTRICITY,INCLINATION,RA_OF_ASC_NODE,ARG_OF_PERICENTER,MEAN_ANOMALY,BSTAR,MEAN_MOTION_DOT,MEAN_MOTION_DDOT,TLE_LINE0,TLE_LINE1,TLE_LINE2,SEMIMAJOR_AXIS,PERIOD,APOGEE,PERIGEE,DECAYED
54083.0,STARLINK-5178,PAYLOAD,2022-11-05 22:00:01,15.73156093,0.0002132,53.2154,67.1819,26.8883,76.4774,0.00050054,0.00070086,0.0,0 STARLINK-5178,1 54083U 22136AJ  22309.91668981  .00070086  00000-0  50054-3 0  9996,2 54083  53.2154  67.1819 0002132  26.8883  76.4774 15.73156093  3072,6728.02,91.536,351.32,348.451,0.0
54083.0,STARLINK-5178,PAYLOAD,2022-11-06 14:00:01,15.73202111,0.0002307,53.216,63.8832,31.8215,249.3148,0.00022318,0.00030821,0.0,0 STARLINK-5178,1 54083U 22136AJ  22310.58334491  .00030821  00000-0  22318-3 0  9992,2 54083  53.2160  63.8832 0002307  31.8215 249.3148 15.73202111  1309,6727.889,91.533,351.306,348.202,0.0
54083.0,STARLINK-5178,PAYLOAD,2022-11-07 08:00:01,15.73181628,0.0002082,53.2164,60.1703,23.7499,187.5133,0.0005791,0.00081383,0.0,0 STARLINK-5178,1 54083U 22136AJ  22311.33334491  .00081383  00000-0  57910-3 0  9991,2 54083  53.2164  60.1703 0002082  23.7499 187.5133 15.73181628  3302,6727.948,91.534,351.213,348.412,0.0
54083.0,STARLINK-5178,PAYLOAD,2022-11-07 22:00:00,15.7324659,0.0002344,53.2157,57.2849,17.5284,259.4019,-0.00035239,-0.0004989,0.0,0 STARLINK-5178,1 54083U 22136AJ  22311.91667824 -.00049890  00000-0 -35239-3 0  9993,2 54083  53.2157  57.2849 0002344  17.5284 259.4019 15.73246590  1306,6727.762,91.53,351.204,348.05,0.0
54083.0,STARLINK-5178,PAYLOAD,2022-11-08 10:00:01,15.73283407,0.0002463,53.2163,54.81,26.9776,203.5464,-0.00016157,-0.00023319,0.0,0 STARLINK-5178,1 54083U 22136AJ  22312.41668981 -.00023319  00000-0 -16157-3 0  9990,2 54083  53.2163  54.8100 0002463  26.9776 203.5464 15.73283407  3470,6727.656999999997,91.528,351.17900000000014,347.865,0.0
54083.0,STARLINK-5178,PAYLOAD,2022-11-08 14:00:01,15.73238399,0.0002625,53.2162,53.9863,26.34,68.6336,0.00051974,0.00073087,0.0,0 STARLINK-5178,1 54083U 22136AJ  22312.58334491  .00073087  00000-0  51974-3 0  9995,2 54083  53.2162  53.9863 0002625  26.3400  68.6336 15.73238399  1301,6727.786,91.531,351.417,347.885,0.0
54083.0,STARLINK-5178,PAYLOAD,2022-11-08 22:00:00,15.73348268,0.0002593,53.2164,52.3361,22.7062,161.2643,-0.0010218,-0.00142554,0.0,0 STARLINK-5178,1 54083U 22136AJ  22312.91667824 -.00142554  00000-0 -10218-2 0  9994,2 54083  53.2164  52.3361 0002593  22.7062 161.2643 15.73348268  3543,6727.472,91.525,351.082,347.593,0.0
54083.0,STARLINK-5178,PAYLOAD,2022-11-09 14:00:01,15.73081543,0.0002853,53.2161,49.0378,26.6478,335.2986,0.00016537,0.00022536,0.0,0 STARLINK-5178,1 54083U 22136AJ  22313.58334491  .00022536  00000-0  16537-3 0  9995,2 54083  53.2161  49.0378 0002853  26.6478 335.2986 15.73081543  1309,6728.233,91.54,352.017,348.17800000000005,0.0
54083.0,STARLINK-5178,PAYLOAD,2022-11-09 22:00:01,15.73139967,0.0002758,53.2157,47.3878,22.6263,68.1628,-0.00045308,-0.00063581,0.0,0 STARLINK-5178,1 54083U 22136AJ  22313.91668981 -.00063581  00000-0 -45308-3 0  9991,2 54083  53.2157  47.3878 0002758  22.6263  68.1628 15.73139967  3707,6728.066,91.537,351.787,348.076,0.0
54083.0,STARLINK-5178,PAYLOAD,2022-11-10 14:00:01,15.73117222,0.0002908,53.2161,44.0905,21.9023,246.4556,0.00051066,0.00071414,0.0,0 STARLINK-5178,1 54083U 22136AJ  22314.58334491  .00071414  00000-0  51066-3 0  9991,2 54083  53.2161  44.0905 0002908  21.9023 246.4556 15.73117222  1305,6728.130999999999,91.538,351.95300000000015,348.04,0.0
54083.0,STARLINK-5178,PAYLOAD,2022-11-10 22:00:00,15.73183098,0.000287,53.2162,42.4402,21.5599,335.6481,0.00019692,0.00027088,0.0,0 STARLINK-5178,1 54083U 22136AJ  22314.91667824  .00027088  00000-0  19692-3 0  9994,2 54083  53.2162  42.4402 0002870  21.5599 335.6481 15.73183098  3867,6727.943,91.534,351.73900000000015,347.87699999999984,0.0
54083.0,STARLINK-5178,PAYLOAD,2022-11-11 14:00:01,15.73275214,0.0003076,53.2158,39.1422,22.0489,153.0452,-0.00010637,-0.00015576,0.0,0 STARLINK-5178,1 54083U 22136AJ  22315.58334491 -.00015576  00000-0 -10637-3 0  9990,2 54083  53.2158  39.1422 0003076  22.0489 153.0452 15.73275214  1309,6727.681,91.529,351.615,347.476,0.0
54083.0,STARLINK-5178,PAYLOAD,2022-11-11 16:00:01,15.73271775,0.0003086,53.2157,38.7301,20.5538,266.8602,-8.460799999999999e-05,-0.0001252,0.0,0 STARLINK-5178,1 54083U 22136AJ  22315.66668981 -.00012520  00000-0 -84608-4 0  9999,2 54083  53.2157  38.7301 0003086  20.5538 266.8602 15.73271775  3982,6727.691,91.529,351.63199999999995,347.47900000000016,0.0
54083.0,STARLINK-5178,PAYLOAD,2022-11-11 22:00:00,15.73324119,0.0003039,53.2169,37.487,26.2522,237.8792,-0.0013183,-0.00182708,0.0,0 STARLINK-5178,1 54083U 22136AJ  22315.91667824 -.00182708  00000-0 -13183-2 0  9996,2 54083  53.2169  37.4870 0003039  26.2522 237.8792 15.73324119  1309,6727.541,91.526,351.451,347.362,0.0
54083.0,STARLINK-5178,PAYLOAD,2022-11-12 14:00:01,15.73220965,0.0003047,53.2157,34.1933,17.184,64.939,-0.00030277,-0.00042948,0.0,0 STARLINK-5178,1 54083U 22136AJ  22316.58334491 -.00042948  00000-0 -30277-3 0  9996,2 54083  53.2157  34.1933 0003047  17.1840  64.9390 15.73220965  1308,6727.835,91.532,351.75,347.65,0.0
54083.0,STARLINK-5178,PAYLOAD,2022-11-12 22:00:00,15.73186226,0.0002943,53.2158,32.5424,12.5027,158.5599,-0.00011317,-0.00016468,0.0,0 STARLINK-5178,1 54083U 22136AJ  22316.91667824 -.00016468  00000-0 -11317-3 0  9994,2 54083  53.2158  32.5424 0002943  12.5027 158.5599 15.73186226  4176,6727.934,91.534,351.779,347.819,0.0
54083.0,STARLINK-5178,PAYLOAD,2022-11-13 14:00:01,15.73182366,0.0003164,53.2154,29.2448,9.3296,339.5325,-3.8521e-05,-6.023e-05,0.0,0 STARLINK-5178,1 54083U 22136AJ  22317.58334491 -.00006023  00000-0 -38521-4 0  9992,2 54083  53.2154  29.2448 0003164   9.3296 339.5325 15.73182366  1300,6727.945,91.534,351.939,347.682,0.0
54083.0,STARLINK-5178,PAYLOAD,2022-11-13 22:00:00,15.7315731,0.0002985,53.215,27.5937,6.7725,70.9955,0.00025436,0.00035166,0.0,0 STARLINK-5178,1 54083U 22136AJ  22317.91667824  .00035166  00000-0  25436-3 0  9996,2 54083  53.2150  27.5937 0002985   6.7725  70.9955 15.73157310  1304,6728.017,91.536,351.89,347.874,0.0
54083.0,STARLINK-5178,PAYLOAD,2022-11-14 14:00:01,15.73238398,0.0003252,53.2155,24.2956,7.521,248.0825,-0.00014539,-0.00021017,0.0,0 STARLINK-5178,1 54083U 22136AJ  22318.58334491 -.00021017  00000-0 -14539-3 0  9995,2 54083  53.2155  24.2956 0003252   7.5210 248.0825 15.73238398  1300,6727.786,91.531,351.839,347.463,0.0
54083.0,STARLINK-5178,PAYLOAD,2022-11-14 22:00:00,15.73225135,0.0003119,53.2164,22.6418,8.3389,336.2337,-0.00011505,-0.00016759,0.0,0 STARLINK-5178,1 54083U 22136AJ  22318.91667824 -.00016759  00000-0 -11505-3 0  9998,2 54083  53.2164  22.6418 0003119   8.3389 336.2337 15.73225135  1306,6727.824000000001,91.532,351.787,347.59,0.0
54083.0,STARLINK-5178,PAYLOAD,2022-11-15 02:00:01,15.7320405,0.0003087,53.216,21.8171,8.4124,200.6697,-9.4514e-05,-0.00013871,0.0,0 STARLINK-5178,1 54083U 22136AJ  22319.08334491 -.00013871  00000-0 -94514-4 0  9992,2 54083  53.2160  21.8171 0003087   8.4124 200.6697 15.73204050  4524,6727.884,91.533,351.826,347.672,0.0
54083.0,STARLINK-5178,PAYLOAD,2022-11-15 14:00:01,15.73139687,0.0003465,53.2152,19.3474,9.4598,153.0063,0.00069278,0.0009751,0.0,0 STARLINK-5178,1 54083U 22136AJ  22319.58334491  .00097510  00000-0  69278-3 0  9995,2 54083  53.2152  19.3474 0003465   9.4598 153.0063 15.73139687  1303,6728.066999999999,91.537,352.26300000000015,347.601,0.0
54083.0,STARLINK-5178,PAYLOAD,2022-11-15 22:00:00,15.73221262,0.0003241,53.2149,17.6961,9.227,242.1339,-8.0128e-05,-0.00011867,0.0,0 STARLINK-5178,1 54083U 22136AJ  22319.91667824 -.00011867  00000-0 -80128-4 0  9992,2 54083  53.2149  17.6961 0003241   9.2270 242.1339 15.73221262  1305,6727.835,91.532,351.88,347.519,0.0
54083.0,STARLINK-5178,PAYLOAD,2022-11-16 06:00:00,15.73208947,0.0003182,53.2154,16.0454,9.4357,330.8778,0.00010091,0.0001357,0.0,0 STARLINK-5178,1 54083U 22136AJ  22320.25001157  .00013570  00000-0  10091-3 0  9994,2 54083  53.2154  16.0454 0003182   9.4357 330.8778 15.73208947  4707,6727.87,91.533,351.875,347.594,0.0
54083.0,STARLINK-5178,PAYLOAD,2022-11-16 14:00:01,15.73252012,0.0003466,53.2162,14.396,8.8177,60.5006,-0.00045704,-0.00064443,0.0,0 STARLINK-5178,1 54083U 22136AJ  22320.58335648 -.00064443  00000-0 -45704-3 0  9991,2 54083  53.2162  14.3960 0003466   8.8177  60.5006 15.73252012  1303,6727.746999999999,91.53,351.944,347.28,0.0
54083.0,STARLINK-5178,PAYLOAD,2022-11-16 20:00:01,15.7318462,0.0003246,53.2169,13.1555,9.463,36.5318,8.7263e-05,0.00011636,0.0,0 STARLINK-5178,1 54083U 22136AJ  22320.83334491  .00011636  00000-0  87263-4 0  9995,2 54083  53.2169  13.1555 0003246   9.4630  36.5318 15.73184620  4798,6727.939,91.534,351.98800000000006,347.62,0.0
54083.0,STARLINK-5178,PAYLOAD,2022-11-16 22:00:08,15.73158108,0.0003191,53.2173,12.7416,9.6234,149.0694,0.00048644,0.00068093,0.0,0 STARLINK-5178,1 54083U 22136AJ  22320.91675926  .00068093  00000-0  48644-3 0  9993,2 54083  53.2173  12.7416 0003191   9.6234 149.0694 15.73158108  1308,6728.015,91.536,352.027,347.733,0.0
54083.0,STARLINK-5178,PAYLOAD,2022-11-17 06:00:00,15.73270059,0.0003355,53.2155,11.0978,5.5423,241.6728,-0.00061427,-0.00086242,0.0,0 STARLINK-5178,1 54083U 22136AJ  22321.25001157 -.00086242  00000-0 -61427-3 0  9992,2 54083  53.2155  11.0978 0003355   5.5423 241.6728 15.73270059  4861,6727.695,91.529,351.8180000000001,347.30300000000005,0.0
54083.0,STARLINK-5178,PAYLOAD,2022-11-17 14:00:01,15.7319191,0.0003688,53.215,9.4499,5.4804,330.7072,0.00027058,0.00037519,0.0,0 STARLINK-5178,1 54083U 22136AJ  22321.58334491  .00037519  00000-0  27058-3 0  9991,2 54083  53.2150   9.4499 0003688   5.4804 330.7072 15.73191910  1302,6727.918000000002,91.534,352.264,347.302,0.0
